CCSDS_OMM_VERS = 2.0
CREATION_DATE  = 
ORIGINATOR     = 

OBJECT_NAME    = STARLINK-35988
OBJECT_ID      = 2025-270AD
CENTER_NAME    = EARTH
REF_FRAME      = TEME
TIME_SYSTEM    = UTC
MEAN_ELEMENT_THEORY = SGP/SGP4

EPOCH          = 2025-12-09T14:00:01.999872
MEAN_MOTION    = 15.55510300
ECCENTRICITY   = .00017261
INCLINATION    = 42.9995
RA_OF_ASC_NODE = 211.0951
ARG_OF_PERICENTER = 263.5403
MEAN_ANOMALY   = 163.3925

EPHEMERIS_TYPE = 0
CLASSIFICATION_TYPE = U
NORAD_CAT_ID   = 66615
ELEMENT_SET_NO = 999
REV_AT_EPOCH   = 373
BSTAR          = -.32034903E-1
MEAN_MOTION_DOT = -.2010102E-1
MEAN_MOTION_DDOT = 0

CCSDS_OMM_VERS = 2.0
CREATION_DATE  = 
ORIGINATOR     = 

OBJECT_NAME    = STARLINK-35391
OBJECT_ID      = 2025-270AE
CENTER_NAME    = EARTH
REF_FRAME      = TEME
TIME_SYSTEM    = UTC
MEAN_ELEMENT_THEORY = SGP/SGP4

EPOCH          = 2025-12-09T14:00:01.999872
MEAN_MOTION    = 15.55514004
ECCENTRICITY   = .00016136
INCLINATION    = 42.9998
RA_OF_ASC_NODE = 211.0853
ARG_OF_PERICENTER = 267.2078
MEAN_ANOMALY   = 163.5578

EPHEMERIS_TYPE = 0
CLASSIFICATION_TYPE = U
NORAD_CAT_ID   = 66616
ELEMENT_SET_NO = 999
REV_AT_EPOCH   = 400
BSTAR          = -.32100559E-1
MEAN_MOTION_DOT = -.2013965E-1
MEAN_MOTION_DDOT = 0

CCSDS_OMM_VERS = 2.0
CREATION_DATE  = 
ORIGINATOR     = 

OBJECT_NAME    = STARLINK-35940
OBJECT_ID      = 2025-271A
CENTER_NAME    = EARTH
REF_FRAME      = TEME
TIME_SYSTEM    = UTC
MEAN_ELEMENT_THEORY = SGP/SGP4

EPOCH          = 2025-12-09T14:00:01.999872
MEAN_MOTION    = 15.63698406
ECCENTRICITY   = .00008174
INCLINATION    = 53.1592
RA_OF_ASC_NODE = 202.4931
ARG_OF_PERICENTER = 109.5202
MEAN_ANOMALY   = 279.3967

EPHEMERIS_TYPE = 0
CLASSIFICATION_TYPE = U
NORAD_CAT_ID   = 66617
ELEMENT_SET_NO = 999
REV_AT_EPOCH   = 373
BSTAR          = -.23671568E-1
MEAN_MOTION_DOT = -.1980492E-1
MEAN_MOTION_DDOT = 0

CCSDS_OMM_VERS = 2.0
CREATION_DATE  = 
ORIGINATOR     = 

OBJECT_NAME    = STARLINK-35970
OBJECT_ID      = 2025-271B
CENTER_NAME    = EARTH
REF_FRAME      = TEME
TIME_SYSTEM    = UTC
MEAN_ELEMENT_THEORY = SGP/SGP4

EPOCH          = 2025-12-09T14:00:01.999872
MEAN_MOTION    = 15.63699915
ECCENTRICITY   = .00009318
INCLINATION    = 53.1594
RA_OF_ASC_NODE = 202.3806
ARG_OF_PERICENTER = 109.0163
MEAN_ANOMALY   = 333.2228

EPHEMERIS_TYPE = 0
CLASSIFICATION_TYPE = U
NORAD_CAT_ID   = 66618
ELEMENT_SET_NO = 999
REV_AT_EPOCH   = 373
BSTAR          = -.23702112E-1
MEAN_MOTION_DOT = -.1982923E-1
MEAN_MOTION_DDOT = 0

CCSDS_OMM_VERS = 2.0
CREATION_DATE  = 
ORIGINATOR     = 

OBJECT_NAME    = STARLINK-35951
OBJECT_ID      = 2025-271C
CENTER_NAME    = EARTH
REF_FRAME      = TEME
TIME_SYSTEM    = UTC
MEAN_ELEMENT_THEORY = SGP/SGP4

EPOCH          = 2025-12-09T14:00:01.999872
MEAN_MOTION    = 15.63703595
ECCENTRICITY   = .00008203
INCLINATION    = 53.1596
RA_OF_ASC_NODE = 202.4759
ARG_OF_PERICENTER = 108.5295
MEAN_ANOMALY   = 288.0507

EPHEMERIS_TYPE = 0
CLASSIFICATION_TYPE = U
NORAD_CAT_ID   = 66619
ELEMENT_SET_NO = 999
REV_AT_EPOCH   = 373
BSTAR          = -.23724723E-1
MEAN_MOTION_DOT = -.1984762E-1
MEAN_MOTION_DDOT = 0

CCSDS_OMM_VERS = 2.0
CREATION_DATE  = 
ORIGINATOR     = 

OBJECT_NAME    = STARLINK-35936
OBJECT_ID      = 2025-271D
CENTER_NAME    = EARTH
REF_FRAME      = TEME
TIME_SYSTEM    = UTC
MEAN_ELEMENT_THEORY = SGP/SGP4

EPOCH          = 2025-12-09T14:00:01.999872
MEAN_MOTION    = 15.63701827
ECCENTRICITY   = .0000786
INCLINATION    = 53.1595
RA_OF_ASC_NODE = 202.4889
ARG_OF_PERICENTER = 111.4211
MEAN_ANOMALY   = 279.4099

EPHEMERIS_TYPE = 0
CLASSIFICATION_TYPE = U
NORAD_CAT_ID   = 66620
ELEMENT_SET_NO = 999
REV_AT_EPOCH   = 373
BSTAR          = -.23716928E-1
MEAN_MOTION_DOT = -.1984042E-1
MEAN_MOTION_DDOT = 0

CCSDS_OMM_VERS = 2.0
CREATION_DATE  = 
ORIGINATOR     = 

OBJECT_NAME    = STARLINK-35847
OBJECT_ID      = 2025-271E
CENTER_NAME    = EARTH
REF_FRAME      = TEME
TIME_SYSTEM    = UTC
MEAN_ELEMENT_THEORY = SGP/SGP4

EPOCH          = 2025-12-09T14:00:01.999872
MEAN_MOTION    = 15.63705012
ECCENTRICITY   = .00010106
INCLINATION    = 53.1591
RA_OF_ASC_NODE = 202.3724
ARG_OF_PERICENTER = 92.9535
MEAN_ANOMALY   = 352.8181

EPHEMERIS_TYPE = 0
CLASSIFICATION_TYPE = U
NORAD_CAT_ID   = 66621
ELEMENT_SET_NO = 999
REV_AT_EPOCH   = 373
BSTAR          = -.23739966E-1
MEAN_MOTION_DOT = -.1986116E-1
MEAN_MOTION_DDOT = 0

CCSDS_OMM_VERS = 2.0
CREATION_DATE  = 
ORIGINATOR     = 

OBJECT_NAME    = STARLINK-35950
OBJECT_ID      = 2025-271F
CENTER_NAME    = EARTH
REF_FRAME      = TEME
TIME_SYSTEM    = UTC
MEAN_ELEMENT_THEORY = SGP/SGP4

EPOCH          = 2025-12-09T14:00:01.999872
MEAN_MOTION    = 15.63702149
ECCENTRICITY   = .00008009
INCLINATION    = 53.1592
RA_OF_ASC_NODE = 202.4725
ARG_OF_PERICENTER = 107.3098
MEAN_ANOMALY   = 291.1882

EPHEMERIS_TYPE = 0
CLASSIFICATION_TYPE = U
NORAD_CAT_ID   = 66622
ELEMENT_SET_NO = 999
REV_AT_EPOCH   = 373
BSTAR          = -.23714224E-1
MEAN_MOTION_DOT = -.1983877E-1
MEAN_MOTION_DDOT = 0

CCSDS_OMM_VERS = 2.0
CREATION_DATE  = 
ORIGINATOR     = 

OBJECT_NAME    = STARLINK-35920
OBJECT_ID      = 2025-271G
CENTER_NAME    = EARTH
REF_FRAME      = TEME
TIME_SYSTEM    = UTC
MEAN_ELEMENT_THEORY = SGP/SGP4

EPOCH          = 2025-12-09T14:00:01.999872
MEAN_MOTION    = 15.63700310
ECCENTRICITY   = .0000842
INCLINATION    = 53.1592
RA_OF_ASC_NODE = 202.4640
ARG_OF_PERICENTER = 104.5284
MEAN_ANOMALY   = 297.8021

EPHEMERIS_TYPE = 0
CLASSIFICATION_TYPE = U
NORAD_CAT_ID   = 66623
ELEMENT_SET_NO = 999
REV_AT_EPOCH   = 373
BSTAR          = -.23646624E-1
MEAN_MOTION_DOT = -.1978807E-1
MEAN_MOTION_DDOT = 0

CCSDS_OMM_VERS = 2.0
CREATION_DATE  = 
ORIGINATOR     = 

OBJECT_NAME    = STARLINK-35927
OBJECT_ID      = 2025-271H
CENTER_NAME    = EARTH
REF_FRAME      = TEME
TIME_SYSTEM    = UTC
MEAN_ELEMENT_THEORY = SGP/SGP4

EPOCH          = 2025-12-09T14:00:01.999872
MEAN_MOTION    = 15.63705627
ECCENTRICITY   = .00007941
INCLINATION    = 53.1597
RA_OF_ASC_NODE = 202.4688
ARG_OF_PERICENTER = 105.3152
MEAN_ANOMALY   = 295.0967

EPHEMERIS_TYPE = 0
CLASSIFICATION_TYPE = U
NORAD_CAT_ID   = 66624
ELEMENT_SET_NO = 999
REV_AT_EPOCH   = 373
BSTAR          = -.23750336E-1
MEAN_MOTION_DOT = -.1986767E-1
MEAN_MOTION_DDOT = 0

CCSDS_OMM_VERS = 2.0
CREATION_DATE  = 
ORIGINATOR     = 

OBJECT_NAME    = STARLINK-35929
OBJECT_ID      = 2025-271J
CENTER_NAME    = EARTH
REF_FRAME      = TEME
TIME_SYSTEM    = UTC
MEAN_ELEMENT_THEORY = SGP/SGP4

EPOCH          = 2025-12-09T14:00:01.999872
MEAN_MOTION    = 15.63701266
ECCENTRICITY   = .00009689
INCLINATION    = 53.1591
RA_OF_ASC_NODE = 202.4599
ARG_OF_PERICENTER = 111.5199
MEAN_ANOMALY   = 292.7252

EPHEMERIS_TYPE = 0
CLASSIFICATION_TYPE = U
NORAD_CAT_ID   = 66625
ELEMENT_SET_NO = 999
REV_AT_EPOCH   = 373
BSTAR          = -.23644979E-1
MEAN_MOTION_DOT = -.1978842E-1
MEAN_MOTION_DDOT = 0

CCSDS_OMM_VERS = 2.0
CREATION_DATE  = 
ORIGINATOR     = 

OBJECT_NAME    = STARLINK-35902
OBJECT_ID      = 2025-271K
CENTER_NAME    = EARTH
REF_FRAME      = TEME
TIME_SYSTEM    = UTC
MEAN_ELEMENT_THEORY = SGP/SGP4

EPOCH          = 2025-12-09T14:00:01.999872
MEAN_MOTION    = 15.63703613
ECCENTRICITY   = .00008406
INCLINATION    = 53.1590
RA_OF_ASC_NODE = 202.4559
ARG_OF_PERICENTER = 108.9949
MEAN_ANOMALY   = 297.1689

EPHEMERIS_TYPE = 0
CLASSIFICATION_TYPE = U
NORAD_CAT_ID   = 66626
ELEMENT_SET_NO = 999
REV_AT_EPOCH   = 373
BSTAR          = -.23725355E-1
MEAN_MOTION_DOT = -.1984825E-1
MEAN_MOTION_DDOT = 0

