STARLINK-35988          
1 66615U 25270AD  25343.58335648 -.02010102  00000+0 -32035-1 0  9990
2 66615  42.9995 211.0951 0001726 263.5403 163.3925 15.55510300  3739
STARLINK-35391          
1 66616U 25270AE  25343.58335648 -.02013965  00000+0 -32101-1 0  9995
2 66616  42.9998 211.0853 0001613 267.2078 163.5578 15.55514004  4000
STARLINK-35940          
1 66617U 25271A   25343.58335648 -.01980492  00000+0 -23672-1 0  9997
2 66617  53.1592 202.4931 0000817 109.5202 279.3967 15.63698406  3733
STARLINK-35970          
1 66618U 25271B   25343.58335648 -.01982923  00000+0 -23702-1 0  9993
2 66618  53.1594 202.3806 0000931 109.0163 333.2228 15.63699915  3730
STARLINK-35951          
1 66619U 25271C   25343.58335648 -.01984762  00000+0 -23725-1 0  9992
2 66619  53.1596 202.4759 0000820 108.5295 288.0507 15.63703595  3735
STARLINK-35936          
1 66620U 25271D   25343.58335648 -.01984042  00000+0 -23717-1 0  9996
2 66620  53.1595 202.4889 0000786 111.4211 279.4099 15.63701827  3738
STARLINK-35847          
1 66621U 25271E   25343.58335648 -.01986116  00000+0 -23740-1 0  9997
2 66621  53.1591 202.3724 0001010  92.9535 352.8181 15.63705012  3733
STARLINK-35950          
1 66622U 25271F   25343.58335648 -.01983877  00000+0 -23714-1 0  9990
2 66622  53.1592 202.4725 0000800 107.3098 291.1882 15.63702149  3739
STARLINK-35920          
1 66623U 25271G   25343.58335648 -.01978807  00000+0 -23647-1 0  9993
2 66623  53.1592 202.4640 0000842 104.5284 297.8021 15.63700310  3734
STARLINK-35927          
1 66624U 25271H   25343.58335648 -.01986767  00000+0 -23750-1 0  9993
2 66624  53.1597 202.4688 0000794 105.3152 295.0967 15.63705627  3736
STARLINK-35929          
1 66625U 25271J   25343.58335648 -.01978842  00000+0 -23645-1 0  9992
2 66625  53.1591 202.4599 0000968 111.5199 292.7252 15.63701266  3731
STARLINK-35902          
1 66626U 25271K   25343.58335648 -.01984825  00000+0 -23725-1 0  9990
2 66626  53.1590 202.4559 0000840 108.9949 297.1689 15.63703613  3730
